[
    {
        "Altitude(m)": 605459.0638198139,
        "Argument of Periapsis(deg)": 0.0,
        "Eccentricity": 0.0,
        "Inclination(deg)": 60.0,
        "Latitude(deg)": 27.98832771505669,
        "Longitude(deg)": 122.79860704506633,
        "Mean Anomaly(deg)": 32.727299999999985,
        "RAAN(deg)": 205.0,
        "Satellite Name": "Test1 904",
        "Satellite Number": 904,
        "Semi-Major Axis(m)": 6980739.136638005,
        "Time(s)": 0
    },
    {
        "Altitude(m)": 605535.8551749054,
        "Argument of Periapsis(deg)": 0.00010418945913296404,
        "Eccentricity": 0.0,
        "Inclination(deg)": 60.0,
        "Latitude(deg)": 28.50145694795485,
        "Longitude(deg)": 123.15555298674174,
        "Mean Anomaly(deg)": 33.34740614546184,
        "RAAN(deg)": 204.99957995086024,
        "Satellite Name": "Test1 904",
        "Satellite Number": 904,
        "Semi-Major Axis(m)": 6980739.136638005,
        "Time(s)": 10
    }
]